TWILIGHT P              
1 67376U 26004P   26030.91650680  .00001695  00000+0  19165-3 0  9992
2 67376  97.7995  31.7602 0004568 207.2206 152.8772 14.87784036  2886
TWILIGHT Q              
1 67377U 26004Q   26030.51082351  .00145780  00000+0  15452-1 0  9990
2 67377  97.7999  31.3669 0006652 209.0200 151.0648 14.88280196  2815
TWILIGHT R              
1 67378U 26004R   26030.91747043  .00002389  00000+0  26806-3 0  9995
2 67378  97.7969  31.7542 0003984 216.6883 143.4061 14.87715897  2873
TWILIGHT S              
1 67379U 26004S   26030.91731963  .00002054  00000+0  23124-3 0  9999
2 67379  97.7973  31.7561 0004500 213.0820 147.0115 14.87724511  2870
TWILIGHT T              
1 67380U 26004T   26030.91615430  .00002770  00000+0  30906-3 0  9992
2 67380  97.7966  31.7560 0004000 211.7706 148.3269 14.87824897  2878
TWILIGHT U              
1 67381U 26004U   26029.09880990 -.00108713  00000+0 -12141-1 0  9990
2 67381  97.8008  29.9801 0002092 273.6119  86.4858 14.87635069  2606
TWILIGHT V              
1 67382U 26004V   26030.98083055  .00001712  00000+0  19244-3 0  9990
2 67382  97.7994  31.8300 0003952 195.7434 164.3661 14.88010682  2883
TWILIGHT W              
1 67383U 26004W   26030.98439987  .00002518  00000+0  28200-3 0  9997
2 67383  97.7970  31.8218 0004332 213.7448 146.3493 14.87741964  2881
TWILIGHT X              
1 67384U 26004X   26030.97922907  .00005832  00000+0  63705-3 0  9997
2 67384  97.7968  31.8283 0003420 195.7294 164.3817 14.88253438  2881
TWILIGHT Y              
1 67385U 26004Y   26030.97814084  .00005892  00000+0  64228-3 0  9991
2 67385  97.7979  31.8314 0003353 188.9274 171.1884 14.88334390  2883
TWILIGHT Z              
1 67386U 26004Z   26030.97672154  .00002242  00000+0  24823-3 0  9995
2 67386  97.7962  31.8314 0002177 185.7548 174.3645 14.88326645  2882
TWILIGHT AA             
1 67387U 26004AA  26030.90623986  .00005116  00000+0  55422-3 0  9990
2 67387  97.8012  31.7744 0003369 155.5129 204.6248 14.88646085  2878
