CCSDS_OMM_VERS = 2.0
CREATION_DATE  = 
ORIGINATOR     = 

OBJECT_NAME    = TWILIGHT P
OBJECT_ID      = 2026-004P
CENTER_NAME    = EARTH
REF_FRAME      = TEME
TIME_SYSTEM    = UTC
MEAN_ELEMENT_THEORY = SGP/SGP4

EPOCH          = 2026-01-30T21:59:46.187520
MEAN_MOTION    = 14.87784036
ECCENTRICITY   = .00045688
INCLINATION    = 97.7995
RA_OF_ASC_NODE = 31.7602
ARG_OF_PERICENTER = 207.2206
MEAN_ANOMALY   = 152.8772

EPHEMERIS_TYPE = 0
CLASSIFICATION_TYPE = U
NORAD_CAT_ID   = 67376
ELEMENT_SET_NO = 999
REV_AT_EPOCH   = 288
BSTAR          = .19165142E-3
MEAN_MOTION_DOT = .1695E-4
MEAN_MOTION_DDOT = 0

CCSDS_OMM_VERS = 2.0
CREATION_DATE  = 
ORIGINATOR     = 

OBJECT_NAME    = TWILIGHT Q
OBJECT_ID      = 2026-004Q
CENTER_NAME    = EARTH
REF_FRAME      = TEME
TIME_SYSTEM    = UTC
MEAN_ELEMENT_THEORY = SGP/SGP4

EPOCH          = 2026-01-30T12:15:35.151264
MEAN_MOTION    = 14.88280196
ECCENTRICITY   = .00066529
INCLINATION    = 97.7999
RA_OF_ASC_NODE = 31.3669
ARG_OF_PERICENTER = 209.0200
MEAN_ANOMALY   = 151.0648

EPHEMERIS_TYPE = 0
CLASSIFICATION_TYPE = U
NORAD_CAT_ID   = 67377
ELEMENT_SET_NO = 999
REV_AT_EPOCH   = 281
BSTAR          = .15452251E-1
MEAN_MOTION_DOT = .14578E-2
MEAN_MOTION_DDOT = 0

CCSDS_OMM_VERS = 2.0
CREATION_DATE  = 
ORIGINATOR     = 

OBJECT_NAME    = TWILIGHT R
OBJECT_ID      = 2026-004R
CENTER_NAME    = EARTH
REF_FRAME      = TEME
TIME_SYSTEM    = UTC
MEAN_ELEMENT_THEORY = SGP/SGP4

EPOCH          = 2026-01-30T22:01:09.445152
MEAN_MOTION    = 14.87715897
ECCENTRICITY   = .00039847
INCLINATION    = 97.7969
RA_OF_ASC_NODE = 31.7542
ARG_OF_PERICENTER = 216.6883
MEAN_ANOMALY   = 143.4061

EPHEMERIS_TYPE = 0
CLASSIFICATION_TYPE = U
NORAD_CAT_ID   = 67378
ELEMENT_SET_NO = 999
REV_AT_EPOCH   = 287
BSTAR          = .26805818E-3
MEAN_MOTION_DOT = .2389E-4
MEAN_MOTION_DDOT = 0

CCSDS_OMM_VERS = 2.0
CREATION_DATE  = 
ORIGINATOR     = 

OBJECT_NAME    = TWILIGHT S
OBJECT_ID      = 2026-004S
CENTER_NAME    = EARTH
REF_FRAME      = TEME
TIME_SYSTEM    = UTC
MEAN_ELEMENT_THEORY = SGP/SGP4

EPOCH          = 2026-01-30T22:00:56.416032
MEAN_MOTION    = 14.87724511
ECCENTRICITY   = .00045006
INCLINATION    = 97.7973
RA_OF_ASC_NODE = 31.7561
ARG_OF_PERICENTER = 213.0820
MEAN_ANOMALY   = 147.0115

EPHEMERIS_TYPE = 0
CLASSIFICATION_TYPE = U
NORAD_CAT_ID   = 67379
ELEMENT_SET_NO = 999
REV_AT_EPOCH   = 287
BSTAR          = .231242E-3
MEAN_MOTION_DOT = .2054E-4
MEAN_MOTION_DDOT = 0

CCSDS_OMM_VERS = 2.0
CREATION_DATE  = 
ORIGINATOR     = 

OBJECT_NAME    = TWILIGHT T
OBJECT_ID      = 2026-004T
CENTER_NAME    = EARTH
REF_FRAME      = TEME
TIME_SYSTEM    = UTC
MEAN_ELEMENT_THEORY = SGP/SGP4

EPOCH          = 2026-01-30T21:59:15.731520
MEAN_MOTION    = 14.87824897
ECCENTRICITY   = .00040003
INCLINATION    = 97.7966
RA_OF_ASC_NODE = 31.7560
ARG_OF_PERICENTER = 211.7706
MEAN_ANOMALY   = 148.3269

EPHEMERIS_TYPE = 0
CLASSIFICATION_TYPE = U
NORAD_CAT_ID   = 67380
ELEMENT_SET_NO = 999
REV_AT_EPOCH   = 287
BSTAR          = .30906159E-3
MEAN_MOTION_DOT = .277E-4
MEAN_MOTION_DDOT = 0

CCSDS_OMM_VERS = 2.0
CREATION_DATE  = 
ORIGINATOR     = 

OBJECT_NAME    = TWILIGHT U
OBJECT_ID      = 2026-004U
CENTER_NAME    = EARTH
REF_FRAME      = TEME
TIME_SYSTEM    = UTC
MEAN_ELEMENT_THEORY = SGP/SGP4

EPOCH          = 2026-01-29T02:22:17.175360
MEAN_MOTION    = 14.87635069
ECCENTRICITY   = .00020921
INCLINATION    = 97.8008
RA_OF_ASC_NODE = 29.9801
ARG_OF_PERICENTER = 273.6119
MEAN_ANOMALY   = 86.4858

EPHEMERIS_TYPE = 0
CLASSIFICATION_TYPE = U
NORAD_CAT_ID   = 67381
ELEMENT_SET_NO = 999
REV_AT_EPOCH   = 260
BSTAR          = -.12140991E-1
MEAN_MOTION_DOT = -.108713E-2
MEAN_MOTION_DDOT = 0

CCSDS_OMM_VERS = 2.0
CREATION_DATE  = 
ORIGINATOR     = 

OBJECT_NAME    = TWILIGHT V
OBJECT_ID      = 2026-004V
CENTER_NAME    = EARTH
REF_FRAME      = TEME
TIME_SYSTEM    = UTC
MEAN_ELEMENT_THEORY = SGP/SGP4

EPOCH          = 2026-01-30T23:32:23.759520
MEAN_MOTION    = 14.88010682
ECCENTRICITY   = .00039524
INCLINATION    = 97.7994
RA_OF_ASC_NODE = 31.8300
ARG_OF_PERICENTER = 195.7434
MEAN_ANOMALY   = 164.3661

EPHEMERIS_TYPE = 0
CLASSIFICATION_TYPE = U
NORAD_CAT_ID   = 67382
ELEMENT_SET_NO = 999
REV_AT_EPOCH   = 288
BSTAR          = .19243967E-3
MEAN_MOTION_DOT = .1712E-4
MEAN_MOTION_DDOT = 0

CCSDS_OMM_VERS = 2.0
CREATION_DATE  = 
ORIGINATOR     = 

OBJECT_NAME    = TWILIGHT W
OBJECT_ID      = 2026-004W
CENTER_NAME    = EARTH
REF_FRAME      = TEME
TIME_SYSTEM    = UTC
MEAN_ELEMENT_THEORY = SGP/SGP4

EPOCH          = 2026-01-30T23:37:32.148768
MEAN_MOTION    = 14.87741964
ECCENTRICITY   = .00043322
INCLINATION    = 97.7970
RA_OF_ASC_NODE = 31.8218
ARG_OF_PERICENTER = 213.7448
MEAN_ANOMALY   = 146.3493

EPHEMERIS_TYPE = 0
CLASSIFICATION_TYPE = U
NORAD_CAT_ID   = 67383
ELEMENT_SET_NO = 999
REV_AT_EPOCH   = 288
BSTAR          = .2819979E-3
MEAN_MOTION_DOT = .2518E-4
MEAN_MOTION_DDOT = 0

CCSDS_OMM_VERS = 2.0
CREATION_DATE  = 
ORIGINATOR     = 

OBJECT_NAME    = TWILIGHT X
OBJECT_ID      = 2026-004X
CENTER_NAME    = EARTH
REF_FRAME      = TEME
TIME_SYSTEM    = UTC
MEAN_ELEMENT_THEORY = SGP/SGP4

EPOCH          = 2026-01-30T23:30:05.391648
MEAN_MOTION    = 14.88253438
ECCENTRICITY   = .00034208
INCLINATION    = 97.7968
RA_OF_ASC_NODE = 31.8283
ARG_OF_PERICENTER = 195.7294
MEAN_ANOMALY   = 164.3817

EPHEMERIS_TYPE = 0
CLASSIFICATION_TYPE = U
NORAD_CAT_ID   = 67384
ELEMENT_SET_NO = 999
REV_AT_EPOCH   = 288
BSTAR          = .63705272E-3
MEAN_MOTION_DOT = .5832E-4
MEAN_MOTION_DDOT = 0

CCSDS_OMM_VERS = 2.0
CREATION_DATE  = 
ORIGINATOR     = 

OBJECT_NAME    = TWILIGHT Y
OBJECT_ID      = 2026-004Y
CENTER_NAME    = EARTH
REF_FRAME      = TEME
TIME_SYSTEM    = UTC
MEAN_ELEMENT_THEORY = SGP/SGP4

EPOCH          = 2026-01-30T23:28:31.368576
MEAN_MOTION    = 14.88334390
ECCENTRICITY   = .0003353
INCLINATION    = 97.7979
RA_OF_ASC_NODE = 31.8314
ARG_OF_PERICENTER = 188.9274
MEAN_ANOMALY   = 171.1884

EPHEMERIS_TYPE = 0
CLASSIFICATION_TYPE = U
NORAD_CAT_ID   = 67385
ELEMENT_SET_NO = 999
REV_AT_EPOCH   = 288
BSTAR          = .64228222E-3
MEAN_MOTION_DOT = .5892E-4
MEAN_MOTION_DDOT = 0

CCSDS_OMM_VERS = 2.0
CREATION_DATE  = 
ORIGINATOR     = 

OBJECT_NAME    = TWILIGHT Z
OBJECT_ID      = 2026-004Z
CENTER_NAME    = EARTH
REF_FRAME      = TEME
TIME_SYSTEM    = UTC
MEAN_ELEMENT_THEORY = SGP/SGP4

EPOCH          = 2026-01-30T23:26:28.741056
MEAN_MOTION    = 14.88326645
ECCENTRICITY   = .00021778
INCLINATION    = 97.7962
RA_OF_ASC_NODE = 31.8314
ARG_OF_PERICENTER = 185.7548
MEAN_ANOMALY   = 174.3645

EPHEMERIS_TYPE = 0
CLASSIFICATION_TYPE = U
NORAD_CAT_ID   = 67386
ELEMENT_SET_NO = 999
REV_AT_EPOCH   = 288
BSTAR          = .24823457E-3
MEAN_MOTION_DOT = .2242E-4
MEAN_MOTION_DDOT = 0

CCSDS_OMM_VERS = 2.0
CREATION_DATE  = 
ORIGINATOR     = 

OBJECT_NAME    = TWILIGHT AA
OBJECT_ID      = 2026-004AA
CENTER_NAME    = EARTH
REF_FRAME      = TEME
TIME_SYSTEM    = UTC
MEAN_ELEMENT_THEORY = SGP/SGP4

EPOCH          = 2026-01-30T21:44:59.123904
MEAN_MOTION    = 14.88646085
ECCENTRICITY   = .0003369
INCLINATION    = 97.8012
RA_OF_ASC_NODE = 31.7744
ARG_OF_PERICENTER = 155.5129
MEAN_ANOMALY   = 204.6248

EPHEMERIS_TYPE = 0
CLASSIFICATION_TYPE = U
NORAD_CAT_ID   = 67387
ELEMENT_SET_NO = 999
REV_AT_EPOCH   = 287
BSTAR          = .55422062E-3
MEAN_MOTION_DOT = .5116E-4
MEAN_MOTION_DDOT = 0

